[{"OBJECT_NAME":"STARLINK-34919","OBJECT_ID":"2025-218M","EPOCH":"2026-03-09T13:48:46.262880","MEAN_MOTION":15.05670616,"ECCENTRICITY":0.0001302,"INCLINATION":97.6023,"RA_OF_ASC_NODE":292.8584,"ARG_OF_PERICENTER":75.5084,"MEAN_ANOMALY":284.6287,"EPHEMERIS_TYPE":0,"CLASSIFICATION_TYPE":"U","NORAD_CAT_ID":65802,"ELEMENT_SET_NO":999,"REV_AT_EPOCH":2495,"BSTAR":0.00075128,"MEAN_MOTION_DOT":0.00010802,"MEAN_MOTION_DDOT":0},{"OBJECT_NAME":"FENGYUN 1C DEB","OBJECT_ID":"1999-025CMP","EPOCH":"2026-03-08T08:37:00.789888","MEAN_MOTION":14.96815474,"ECCENTRICITY":0.01497126,"INCLINATION":98.9176,"RA_OF_ASC_NODE":115.7276,"ARG_OF_PERICENTER":148.4975,"MEAN_ANOMALY":212.5316,"EPHEMERIS_TYPE":0,"CLASSIFICATION_TYPE":"U","NORAD_CAT_ID":31938,"ELEMENT_SET_NO":999,"REV_AT_EPOCH":409,"BSTAR":0.00073670691,"MEAN_MOTION_DOT":0.00010536,"MEAN_MOTION_DDOT":0}]
